[{"OBJECT_NAME":"ONEWEB-0225","OBJECT_ID":"2021-045AJ","EPOCH":"2026-03-09T13:48:51.438240","MEAN_MOTION":13.15547783,"ECCENTRICITY":0.0001857,"INCLINATION":87.8936,"RA_OF_ASC_NODE":279.0891,"ARG_OF_PERICENTER":108.396,"MEAN_ANOMALY":251.7373,"EPHEMERIS_TYPE":0,"CLASSIFICATION_TYPE":"U","NORAD_CAT_ID":48799,"ELEMENT_SET_NO":999,"REV_AT_EPOCH":23132,"BSTAR":0.00038828,"MEAN_MOTION_DOT":1.59e-6,"MEAN_MOTION_DDOT":0},{"OBJECT_NAME":"FENGYUN 1C DEB","OBJECT_ID":"1999-025EFD","EPOCH":"2026-02-27T01:49:23.401056","MEAN_MOTION":13.38320839,"ECCENTRICITY":0.04274495,"INCLINATION":95.8479,"RA_OF_ASC_NODE":1.295,"ARG_OF_PERICENTER":50.3714,"MEAN_ANOMALY":313.4343,"EPHEMERIS_TYPE":0,"CLASSIFICATION_TYPE":"U","NORAD_CAT_ID":37069,"ELEMENT_SET_NO":999,"REV_AT_EPOCH":88729,"BSTAR":0.0041283344,"MEAN_MOTION_DOT":3.704e-5,"MEAN_MOTION_DDOT":0}]
